[{"OBJECT_NAME":"STARLINK-31929","OBJECT_ID":"2024-097B","EPOCH":"2026-03-09T22:53:16.910880","MEAN_MOTION":15.27571914,"ECCENTRICITY":0.00012783,"INCLINATION":43.0019,"RA_OF_ASC_NODE":273.1735,"ARG_OF_PERICENTER":243.1631,"MEAN_ANOMALY":116.909,"EPHEMERIS_TYPE":0,"CLASSIFICATION_TYPE":"U","NORAD_CAT_ID":59836,"ELEMENT_SET_NO":999,"REV_AT_EPOCH":10195,"BSTAR":-9.713232e-6,"MEAN_MOTION_DOT":-5.29e-6,"MEAN_MOTION_DDOT":0},{"OBJECT_NAME":"OBJECT L","OBJECT_ID":"2024-024L","EPOCH":"2026-03-09T22:36:05.522976","MEAN_MOTION":15.29373491,"ECCENTRICITY":0.00073185,"INCLINATION":97.3169,"RA_OF_ASC_NODE":137.7038,"ARG_OF_PERICENTER":167.6369,"MEAN_ANOMALY":192.5052,"EPHEMERIS_TYPE":0,"CLASSIFICATION_TYPE":"U","NORAD_CAT_ID":58927,"ELEMENT_SET_NO":999,"REV_AT_EPOCH":9318,"BSTAR":0.00043092344,"MEAN_MOTION_DOT":0.00012217,"MEAN_MOTION_DDOT":0}]
